start=new Date('2021-12-12T00:00:00.000Z').valueOf();
sats=[{"RCS_SIZE":"LARGE","ARG_OF_PERICENTER":"92.9492","INCLINATION":"53.0550","OBJECT_NAME":"STARLINK-1453","PERIAPSIS":"545.691","TLE_LINE1":"1 45670U 20035P   21345.90552382  .00000378  00000-0  44325-4 0  9991","MEAN_MOTION_DDOT":"0.0000000000000","PERIOD":"95.592","REF_FRAME":"TEME","GP_ID":"191519659","FILE":"3237650","EPHEMERIS_TYPE":"0","EPOCH":"2021-12-11T21:43:57.258048","ECCENTRICITY":"0.00022020","TLE_LINE2":"2 45670  53.0550 149.3752 0002202  92.9492 267.1749 15.06399315 85601","BSTAR":"0.00004432500000","MEAN_ELEMENT_THEORY":"SGP4","TIME_SYSTEM":"UTC","MEAN_MOTION_DOT":"0.00000378","REV_AT_EPOCH":"8560","CLASSIFICATION_TYPE":"U","RA_OF_ASC_NODE":"149.3752","LAUNCH_DATE":"2020-06-04","SITE":"AFETR","OBJECT_TYPE":"PAYLOAD","COUNTRY_CODE":"US","NORAD_CAT_ID":"45670","APOAPSIS":"548.741","DECAY_DATE":null,"SEMIMAJOR_AXIS":"6925.351","MEAN_ANOMALY":"267.1749","ELEMENT_SET_NO":"999","MEAN_MOTION":"15.06399315","OBJECT_ID":"2020-035P","CENTER_NAME":"EARTH"},{"DECAY_DATE":null,"APOAPSIS":"548.750","SEMIMAJOR_AXIS":"6925.373","MEAN_ANOMALY":"269.7275","ELEMENT_SET_NO":"999","MEAN_MOTION":"15.06392042","CENTER_NAME":"EARTH","OBJECT_ID":"2020-035Q","RA_OF_ASC_NODE":"179.3277","CLASSIFICATION_TYPE":"U","SITE":"AFETR","LAUNCH_DATE":"2020-06-04","COUNTRY_CODE":"US","OBJECT_TYPE":"PAYLOAD","NORAD_CAT_ID":"45671","GP_ID":"191520903","EPOCH":"2021-12-11T22:01:13.055808","FILE":"3237650","EPHEMERIS_TYPE":"0","TLE_LINE2":"2 45671  53.0531 179.3277 0002183  90.3964 269.7275 15.06392042 85286","ECCENTRICITY":"0.00021830","TIME_SYSTEM":"UTC","MEAN_ELEMENT_THEORY":"SGP4","BSTAR":"0.00004015500000","MEAN_MOTION_DOT":"0.00000316","REV_AT_EPOCH":"8528","ARG_OF_PERICENTER":"90.3964","RCS_SIZE":"LARGE","INCLINATION":"53.0531","OBJECT_NAME":"STARLINK-1454","PERIAPSIS":"545.726","TLE_LINE1":"1 45671U 20035Q   21345.91751222  .00000316  00000-0  40155-4 0  9996","PERIOD":"95.593","MEAN_MOTION_DDOT":"0.0000000000000","REF_FRAME":"TEME"},{"EPHEMERIS_TYPE":"0","FILE":"3237650","EPOCH":"2021-12-11T20:40:16.506624","GP_ID":"191520661","REV_AT_EPOCH":"8570","MEAN_MOTION_DOT":"0.00000208","MEAN_ELEMENT_THEORY":"SGP4","BSTAR":"0.00003291000000","TIME_SYSTEM":"UTC","ECCENTRICITY":"0.00018320","TLE_LINE2":"2 45672  53.0534 149.5906 0001832  88.9490 271.1709 15.06381017 85701","PERIAPSIS":"546.003","OBJECT_NAME":"STARLINK-1455","INCLINATION":"53.0534","RCS_SIZE":"LARGE","ARG_OF_PERICENTER":"88.9490","REF_FRAME":"TEME","MEAN_MOTION_DDOT":"0.0000000000000","PERIOD":"95.593","TLE_LINE1":"1 45672U 20035R   21345.86130216  .00000208  00000-0  32910-4 0  9995","MEAN_ANOMALY":"271.1709","SEMIMAJOR_AXIS":"6925.407","APOAPSIS":"548.540","DECAY_DATE":null,"OBJECT_ID":"2020-035R","CENTER_NAME":"EARTH","ELEMENT_SET_NO":"999","MEAN_MOTION":"15.06381017","LAUNCH_DATE":"2020-06-04","SITE":"AFETR","CLASSIFICATION_TYPE":"U","RA_OF_ASC_NODE":"149.5906","NORAD_CAT_ID":"45672","OBJECT_TYPE":"PAYLOAD","COUNTRY_CODE":"US"},{"EPOCH":"2021-12-11T22:22:26.673888","FILE":"3237650","EPHEMERIS_TYPE":"0","GP_ID":"191519902","REV_AT_EPOCH":"8530","MEAN_MOTION_DOT":"0.00001788","TLE_LINE2":"2 45673  53.0522 179.2670 0002040  77.3747 282.7470 15.06391346 85301","ECCENTRICITY":"0.00020400","TIME_SYSTEM":"UTC","BSTAR":"0.00013897000000","MEAN_ELEMENT_THEORY":"SGP4","OBJECT_NAME":"STARLINK-1456","PERIAPSIS":"545.827","ARG_OF_PERICENTER":"77.3747","RCS_SIZE":"LARGE","INCLINATION":"53.0522","PERIOD":"95.593","MEAN_MOTION_DDOT":"0.0000000000000","REF_FRAME":"TEME","TLE_LINE1":"1 45673U 20035S   21345.93225317  .00001788  00000-0  13897-3 0  9997","MEAN_ANOMALY":"282.7470","DECAY_DATE":null,"APOAPSIS":"548.653","SEMIMAJOR_AXIS":"6925.375","ELEMENT_SET_NO":"999","MEAN_MOTION":"15.06391346","CENTER_NAME":"EARTH","OBJECT_ID":"2020-035S","SITE":"AFETR","LAUNCH_DATE":"2020-06-04","RA_OF_ASC_NODE":"179.2670","CLASSIFICATION_TYPE":"U","NORAD_CAT_ID":"45673","COUNTRY_CODE":"US","OBJECT_TYPE":"PAYLOAD"},{"OBJECT_NAME":"STARLINK-1457","PERIAPSIS":"545.718","RCS_SIZE":"LARGE","ARG_OF_PERICENTER":"85.3167","INCLINATION":"53.0535","MEAN_MOTION_DDOT":"0.0000000000000","PERIOD":"95.593","REF_FRAME":"TEME","TLE_LINE1":"1 45674U 20035T   21345.80692555 -.00001230  00000-0 -63712-4 0  9992","FILE":"3237650","EPHEMERIS_TYPE":"0","EPOCH":"2021-12-11T19:21:58.367520","GP_ID":"191520152","REV_AT_EPOCH":"8525","MEAN_MOTION_DOT":"-0.00001230","ECCENTRICITY":"0.00022150","TLE_LINE2":"2 45674  53.0535 179.8255 0002215  85.3167 274.8075 15.06387439 85255","BSTAR":"-0.00006371200000","MEAN_ELEMENT_THEORY":"SGP4","TIME_SYSTEM":"UTC","LAUNCH_DATE":"2020-06-04","SITE":"AFETR","CLASSIFICATION_TYPE":"U","RA_OF_ASC_NODE":"179.8255","NORAD_CAT_ID":"45674","OBJECT_TYPE":"PAYLOAD","COUNTRY_CODE":"US","MEAN_ANOMALY":"274.8075","APOAPSIS":"548.786","DECAY_DATE":null,"SEMIMAJOR_AXIS":"6925.387","MEAN_MOTION":"15.06387439","ELEMENT_SET_NO":"999","OBJECT_ID":"2020-035T","CENTER_NAME":"EARTH"},{"MEAN_MOTION":"15.06395400","ELEMENT_SET_NO":"999","OBJECT_ID":"2020-035U","CENTER_NAME":"EARTH","MEAN_ANOMALY":"283.7935","APOAPSIS":"548.641","DECAY_DATE":null,"SEMIMAJOR_AXIS":"6925.363","NORAD_CAT_ID":"45675","OBJECT_TYPE":"PAYLOAD","COUNTRY_CODE":"US","LAUNCH_DATE":"2020-06-04","SITE":"AFETR","CLASSIFICATION_TYPE":"U","RA_OF_ASC_NODE":"179.2823","REV_AT_EPOCH":"8526","MEAN_MOTION_DOT":"-0.00000895","ECCENTRICITY":"0.00020410","TLE_LINE2":"2 45675  53.0517 179.2823 0002041  76.3281 283.7935 15.06395400 85267","BSTAR":"-0.00004120000000","MEAN_ELEMENT_THEORY":"SGP4","TIME_SYSTEM":"UTC","FILE":"3237650","EPHEMERIS_TYPE":"0","EPOCH":"2021-12-11T22:17:06.876384","GP_ID":"191520411","MEAN_MOTION_DDOT":"0.0000000000000","PERIOD":"95.592","REF_FRAME":"TEME","TLE_LINE1":"1 45675U 20035U   21345.92855181 -.00000895  00000-0 -41200-4 0  9996","OBJECT_NAME":"STARLINK-1458","PERIAPSIS":"545.814","RCS_SIZE":"LARGE","ARG_OF_PERICENTER":"76.3281","INCLINATION":"53.0517"},{"GP_ID":"191521154","EPOCH":"2021-12-11T19:59:08.530368","FILE":"3237650","EPHEMERIS_TYPE":"0","TIME_SYSTEM":"UTC","MEAN_ELEMENT_THEORY":"SGP4","BSTAR":"0.00004568300000","TLE_LINE2":"2 45676  53.0524 179.7000 0002103  79.1266 280.9959 15.06394820 85249","ECCENTRICITY":"0.00021030","REV_AT_EPOCH":"8524","MEAN_MOTION_DOT":"0.00000399","INCLINATION":"53.0524","ARG_OF_PERICENTER":"79.1266","RCS_SIZE":"LARGE","PERIAPSIS":"545.773","OBJECT_NAME":"STARLINK-1460","TLE_LINE1":"1 45676U 20035V   21345.83273762  .00000399  00000-0  45683-4 0  9992","REF_FRAME":"TEME","PERIOD":"95.592","MEAN_MOTION_DDOT":"0.0000000000000","SEMIMAJOR_AXIS":"6925.364","DECAY_DATE":null,"APOAPSIS":"548.686","MEAN_ANOMALY":"280.9959","OBJECT_ID":"2020-035V","CENTER_NAME":"EARTH","ELEMENT_SET_NO":"999","MEAN_MOTION":"15.06394820","RA_OF_ASC_NODE":"179.7000","CLASSIFICATION_TYPE":"U","SITE":"AFETR","LAUNCH_DATE":"2020-06-04","COUNTRY_CODE":"US","OBJECT_TYPE":"PAYLOAD","NORAD_CAT_ID":"45676"},{"MEAN_MOTION_DDOT":"0.0000000000000","PERIOD":"95.595","REF_FRAME":"TEME","TLE_LINE1":"1 45677U 20035W   21345.91013446  .00004806  00000-0  34171-3 0  9999","OBJECT_NAME":"STARLINK-1392","PERIAPSIS":"545.247","RCS_SIZE":"LARGE","ARG_OF_PERICENTER":"95.1352","INCLINATION":"53.0541","REV_AT_EPOCH":"8529","MEAN_MOTION_DOT":"0.00004806","ECCENTRICITY":"0.00030240","TLE_LINE2":"2 45677  53.0541 179.3702 0003024  95.1352 264.9982 15.06358188 85291","MEAN_ELEMENT_THEORY":"SGP4","BSTAR":"0.00034171000000","TIME_SYSTEM":"UTC","FILE":"3237650","EPHEMERIS_TYPE":"0","EPOCH":"2021-12-11T21:50:35.617344","GP_ID":"191519410","NORAD_CAT_ID":"45677","OBJECT_TYPE":"PAYLOAD","COUNTRY_CODE":"US","LAUNCH_DATE":"2020-06-04","SITE":"AFETR","CLASSIFICATION_TYPE":"U","RA_OF_ASC_NODE":"179.3702","ELEMENT_SET_NO":"999","MEAN_MOTION":"15.06358188","OBJECT_ID":"2020-035W","CENTER_NAME":"EARTH","MEAN_ANOMALY":"264.9982","APOAPSIS":"549.436","DECAY_DATE":null,"SEMIMAJOR_AXIS":"6925.477"},{"NORAD_CAT_ID":"45678","OBJECT_TYPE":"PAYLOAD","COUNTRY_CODE":"US","LAUNCH_DATE":"2020-06-04","SITE":"AFETR","CLASSIFICATION_TYPE":"U","RA_OF_ASC_NODE":"169.3871","ELEMENT_SET_NO":"999","MEAN_MOTION":"15.06383789","CENTER_NAME":"EARTH","OBJECT_ID":"2020-035X","MEAN_ANOMALY":"273.8813","APOAPSIS":"548.911","DECAY_DATE":null,"SEMIMAJOR_AXIS":"6925.398","MEAN_MOTION_DDOT":"0.0000000000000","PERIOD":"95.593","REF_FRAME":"TEME","TLE_LINE1":"1 45678U 20035X   21345.90369562  .00000167  00000-0  30144-4 0  9995","OBJECT_NAME":"STARLINK-1393","PERIAPSIS":"545.615","RCS_SIZE":"LARGE","ARG_OF_PERICENTER":"86.2448","INCLINATION":"53.0529","MEAN_MOTION_DOT":"0.00000167","REV_AT_EPOCH":"8541","ECCENTRICITY":"0.00023800","TLE_LINE2":"2 45678  53.0529 169.3871 0002380  86.2448 273.8813 15.06383789 85416","MEAN_ELEMENT_THEORY":"SGP4","BSTAR":"0.00003014400000","TIME_SYSTEM":"UTC","FILE":"3237650","EPHEMERIS_TYPE":"0","EPOCH":"2021-12-11T21:41:19.301568","GP_ID":"191519660"},{"REV_AT_EPOCH":"8541","MEAN_MOTION_DOT":"-0.00001230","ECCENTRICITY":"0.00023690","TLE_LINE2":"2 45679  53.0540 169.9737 0002369  90.9787 269.1473 15.06392278 85415","BSTAR":"-0.00006370200000","MEAN_ELEMENT_THEORY":"SGP4","TIME_SYSTEM":"UTC","FILE":"3237650","EPHEMERIS_TYPE":"0","EPOCH":"2021-12-11T18:35:30.886656","GP_ID":"191520904","MEAN_MOTION_DDOT":"0.0000000000000","PERIOD":"95.593","REF_FRAME":"TEME","TLE_LINE1":"1 45679U 20035Y   21345.77466304 -.00001230  00000-0 -63702-4 0  9993","OBJECT_NAME":"STARLINK-1394","PERIAPSIS":"545.597","RCS_SIZE":"LARGE","ARG_OF_PERICENTER":"90.9787","INCLINATION":"53.0540","MEAN_MOTION":"15.06392278","ELEMENT_SET_NO":"999","OBJECT_ID":"2020-035Y","CENTER_NAME":"EARTH","MEAN_ANOMALY":"269.1473","APOAPSIS":"548.878","DECAY_DATE":null,"SEMIMAJOR_AXIS":"6925.372","NORAD_CAT_ID":"45679","OBJECT_TYPE":"PAYLOAD","COUNTRY_CODE":"US","LAUNCH_DATE":"2020-06-04","SITE":"AFETR","CLASSIFICATION_TYPE":"U","RA_OF_ASC_NODE":"169.9737"}];
